[
    {
        "Altitude(m)": 713184.6305795917,
        "Argument of Periapsis(deg)": 0.0022780242373254137,
        "Eccentricity": 0.0,
        "Inclination(deg)": 45.0,
        "Latitude(deg)": -33.72358878853872,
        "Longitude(deg)": 26.470192507795787,
        "Mean Anomaly(deg)": -128.6024566705039,
        "RAAN(deg)": 264.9978496117084,
        "Satellite Name": "Constellation 1 1180",
        "Satellite Number": 1180,
        "Semi-Major Axis(m)": 7083131.272910544,
        "Time(s)": 38
    },
    {
        "Altitude(m)": 713197.5589432383,
        "Argument of Periapsis(deg)": 0.002337972243570819,
        "Eccentricity": 0.0,
        "Inclination(deg)": 45.0,
        "Latitude(deg)": -33.75572759117218,
        "Longitude(deg)": 26.52780601896423,
        "Mean Anomaly(deg)": -128.54175553025394,
        "RAAN(deg)": 264.9977930225428,
        "Satellite Name": "Constellation 1 1180",
        "Satellite Number": 1180,
        "Semi-Major Axis(m)": 7083131.272910544,
        "Time(s)": 39
    },
    {
        "Altitude(m)": 713210.4779621062,
        "Argument of Periapsis(deg)": 0.0023979202498162246,
        "Eccentricity": 0.0,
        "Inclination(deg)": 45.0,
        "Latitude(deg)": -33.787835288741476,
        "Longitude(deg)": 26.585465435557136,
        "Mean Anomaly(deg)": -128.48105439000403,
        "RAAN(deg)": 264.9977364333772,
        "Satellite Name": "Constellation 1 1180",
        "Satellite Number": 1180,
        "Semi-Major Axis(m)": 7083131.272910544,
        "Time(s)": 40
    },
    {
        "Altitude(m)": 713223.387590038,
        "Argument of Periapsis(deg)": 0.00245786825606163,
        "Eccentricity": 0.0,
        "Inclination(deg)": 45.0,
        "Latitude(deg)": -33.81991182146291,
        "Longitude(deg)": 26.643170803211703,
        "Mean Anomaly(deg)": -128.42035324975407,
        "RAAN(deg)": 264.99767984421163,
        "Satellite Name": "Constellation 1 1180",
        "Satellite Number": 1180,
        "Semi-Major Axis(m)": 7083131.272910544,
        "Time(s)": 41
    },
    {
        "Altitude(m)": 713236.2877809083,
        "Argument of Periapsis(deg)": 0.002517816262307036,
        "Eccentricity": 0.0,
        "Inclination(deg)": 45.0,
        "Latitude(deg)": -33.851957129484425,
        "Longitude(deg)": 26.70092216740933,
        "Mean Anomaly(deg)": -128.35965210950422,
        "RAAN(deg)": 264.9976232550461,
        "Satellite Name": "Constellation 1 1180",
        "Satellite Number": 1180,
        "Semi-Major Axis(m)": 7083131.272910544,
        "Time(s)": 42
    },
    {
        "Altitude(m)": 713249.1784886254,
        "Argument of Periapsis(deg)": 0.0025777642685524413,
        "Eccentricity": 0.0,
        "Inclination(deg)": 45.0,
        "Latitude(deg)": -33.88397115288606,
        "Longitude(deg)": 26.75871957347509,
        "Mean Anomaly(deg)": -128.2989509692543,
        "RAAN(deg)": 264.9975666658805,
        "Satellite Name": "Constellation 1 1180",
        "Satellite Number": 1180,
        "Semi-Major Axis(m)": 7083131.272910544,
        "Time(s)": 43
    },
    {
        "Altitude(m)": 713262.0596671179,
        "Argument of Periapsis(deg)": 0.002637712274797847,
        "Eccentricity": 0.0,
        "Inclination(deg)": 45.0,
        "Latitude(deg)": -33.915953831679964,
        "Longitude(deg)": 26.816562898479013,
        "Mean Anomaly(deg)": -128.23824982900442,
        "RAAN(deg)": 264.99751007671495,
        "Satellite Name": "Constellation 1 1180",
        "Satellite Number": 1180,
        "Semi-Major Axis(m)": 7083131.272910544,
        "Time(s)": 44
    },
    {
        "Altitude(m)": 713274.9312703415,
        "Argument of Periapsis(deg)": 0.0026976602810432526,
        "Eccentricity": 0.0,
        "Inclination(deg)": 45.0,
        "Latitude(deg)": -33.94790510580974,
        "Longitude(deg)": 26.874452523623802,
        "Mean Anomaly(deg)": -128.17754868875448,
        "RAAN(deg)": 264.99745348754936,
        "Satellite Name": "Constellation 1 1180",
        "Satellite Number": 1180,
        "Semi-Major Axis(m)": 7083131.272910544,
        "Time(s)": 45
    },
    {
        "Altitude(m)": 713287.7932522923,
        "Argument of Periapsis(deg)": 0.0027576082872886585,
        "Eccentricity": 0.0,
        "Inclination(deg)": 45.0,
        "Latitude(deg)": -33.97982491515185,
        "Longitude(deg)": 26.93238832566075,
        "Mean Anomaly(deg)": -128.11684754850455,
        "RAAN(deg)": 264.9973968983838,
        "Satellite Name": "Constellation 1 1180",
        "Satellite Number": 1180,
        "Semi-Major Axis(m)": 7083131.272910544,
        "Time(s)": 46
    },
    {
        "Altitude(m)": 713300.645566973,
        "Argument of Periapsis(deg)": 0.0028175562935340644,
        "Eccentricity": 0.0,
        "Inclination(deg)": 45.0,
        "Latitude(deg)": -34.01171319951502,
        "Longitude(deg)": 26.990370349277647,
        "Mean Anomaly(deg)": -128.05614640825473,
        "RAAN(deg)": 264.99734030921826,
        "Satellite Name": "Constellation 1 1180",
        "Satellite Number": 1180,
        "Semi-Major Axis(m)": 7083131.272910544,
        "Time(s)": 47
    },
    {
        "Altitude(m)": 713313.4881684368,
        "Argument of Periapsis(deg)": 0.00287750429977947,
        "Eccentricity": 0.0,
        "Inclination(deg)": 45.0,
        "Latitude(deg)": -34.04356989864035,
        "Longitude(deg)": 27.048398639000162,
        "Mean Anomaly(deg)": -127.99544526800486,
        "RAAN(deg)": 264.9972837200527,
        "Satellite Name": "Constellation 1 1180",
        "Satellite Number": 1180,
        "Semi-Major Axis(m)": 7083131.272910544,
        "Time(s)": 48
    },
    {
        "Altitude(m)": 713326.3210107558,
        "Argument of Periapsis(deg)": 0.002937452306024875,
        "Eccentricity": 0.0,
        "Inclination(deg)": 45.0,
        "Latitude(deg)": -34.07539495220161,
        "Longitude(deg)": 27.106473239190922,
        "Mean Anomaly(deg)": -127.93474412775493,
        "RAAN(deg)": 264.9972271308871,
        "Satellite Name": "Constellation 1 1180",
        "Satellite Number": 1180,
        "Semi-Major Axis(m)": 7083131.272910544,
        "Time(s)": 49
    },
    {
        "Altitude(m)": 713339.1440480258,
        "Argument of Periapsis(deg)": 0.0029974003122702807,
        "Eccentricity": 0.0,
        "Inclination(deg)": 45.0,
        "Latitude(deg)": -34.10718829980515,
        "Longitude(deg)": 27.164594194048007,
        "Mean Anomaly(deg)": -127.87404298750498,
        "RAAN(deg)": 264.9971705417215,
        "Satellite Name": "Constellation 1 1180",
        "Satellite Number": 1180,
        "Semi-Major Axis(m)": 7083131.272910544,
        "Time(s)": 50
    },
    {
        "Altitude(m)": 713351.957234379,
        "Argument of Periapsis(deg)": 0.0030573483185156866,
        "Eccentricity": 0.0,
        "Inclination(deg)": 45.0,
        "Latitude(deg)": -34.13894988099013,
        "Longitude(deg)": 27.222761547604186,
        "Mean Anomaly(deg)": -127.81334184725519,
        "RAAN(deg)": 264.99711395255594,
        "Satellite Name": "Constellation 1 1180",
        "Satellite Number": 1180,
        "Semi-Major Axis(m)": 7083131.272910544,
        "Time(s)": 51
    },
    {
        "Altitude(m)": 713364.7605239784,
        "Argument of Periapsis(deg)": 0.003117296324761092,
        "Eccentricity": 0.0,
        "Inclination(deg)": 45.0,
        "Latitude(deg)": -34.17067963522913,
        "Longitude(deg)": 27.280975175629372,
        "Mean Anomaly(deg)": -127.75264070700523,
        "RAAN(deg)": 264.9970573633904,
        "Satellite Name": "Constellation 1 1180",
        "Satellite Number": 1180,
        "Semi-Major Axis(m)": 7083131.272910544,
        "Time(s)": 52
    },
    {
        "Altitude(m)": 713377.5538710111,
        "Argument of Periapsis(deg)": 0.0031772443310064975,
        "Eccentricity": 0.0,
        "Inclination(deg)": 45.0,
        "Latitude(deg)": -34.20237750192677,
        "Longitude(deg)": 27.339235458016294,
        "Mean Anomaly(deg)": -127.69193956675528,
        "RAAN(deg)": 264.99700077422483,
        "Satellite Name": "Constellation 1 1180",
        "Satellite Number": 1180,
        "Semi-Major Axis(m)": 7083131.272910544,
        "Time(s)": 53
    },
    {
        "Altitude(m)": 713390.3372296955,
        "Argument of Periapsis(deg)": 0.0032371923372519038,
        "Eccentricity": 0.0,
        "Inclination(deg)": 45.0,
        "Latitude(deg)": -34.23404342042168,
        "Longitude(deg)": 27.39754227019806,
        "Mean Anomaly(deg)": -127.63123842650542,
        "RAAN(deg)": 264.99694418505925,
        "Satellite Name": "Constellation 1 1180",
        "Satellite Number": 1180,
        "Semi-Major Axis(m)": 7083131.272910544,
        "Time(s)": 54
    },
    {
        "Altitude(m)": 713403.1105542788,
        "Argument of Periapsis(deg)": 0.0032971403434973088,
        "Eccentricity": 0.0,
        "Inclination(deg)": 45.0,
        "Latitude(deg)": -34.26567732998561,
        "Longitude(deg)": 27.455895655535347,
        "Mean Anomaly(deg)": -127.57053728625556,
        "RAAN(deg)": 264.99688759589367,
        "Satellite Name": "Constellation 1 1180",
        "Satellite Number": 1180,
        "Semi-Major Axis(m)": 7083131.272910544,
        "Time(s)": 55
    },
    {
        "Altitude(m)": 713415.873799045,
        "Argument of Periapsis(deg)": 0.0033570883497427146,
        "Eccentricity": 0.0,
        "Inclination(deg)": 45.0,
        "Latitude(deg)": -34.29727916982386,
        "Longitude(deg)": 27.514295657217794,
        "Mean Anomaly(deg)": -127.50983614600568,
        "RAAN(deg)": 264.9968310067281,
        "Satellite Name": "Constellation 1 1180",
        "Satellite Number": 1180,
        "Semi-Major Axis(m)": 7083131.272910544,
        "Time(s)": 56
    }
]